COSMOS 1933             
1 18958U 88020A   22126.41140691  .00001857  00000+0  13056-3 0  9996
2 18958  82.5299 181.0305 0010468 337.8049  22.2723 15.04499360859651
SL-3 R/B                
1 19046U 88032B   22126.13225577  .00003199  00000+0  23492-3 0  9990
2 19046  97.3939 126.9578 0037361  26.7361 333.5780 15.03584794840541
SL-16 R/B               
1 19120U 88039B   22125.81141982 -.00000032  00000+0  78260-5 0  9990
2 19120  71.0133 156.0750 0023113 328.0753  31.8970 14.19244991759173
COSMOS 1953             
1 19210U 88050A   22126.18419990  .00003843  00000+0  25389-3 0  9995
2 19210  82.5131 101.9060 0010021 293.5097  66.5077 15.07110133846327
SL-8 R/B                
1 19257U 88053B   22126.50702825  .00000224  00000+0  83299-4 0  9992
2 19257  74.0480 175.7368 0020913 341.0026 122.6182 14.37590661775156
COSMOS 1975             
1 19573U 88093A   22126.32874462  .00003944  00000+0  26813-3 0  9994
2 19573  82.5202  57.5383 0013020 347.0904  12.9988 15.06025540828126
SL-14 R/B               
1 19574U 88093B   22125.87304922  .00000487  00000+0  56159-4 0  9999
2 19574  82.5302 277.1853 0021450 359.2612 112.8051 14.83479018813860
SL-16 R/B               
1 19650U 88102B   22126.00206349  .00000010  00000+0  29165-4 0  9994
2 19650  71.0010 224.1076 0015007 339.1750  20.8760 14.15828610728472
INTERCOSMOS 24          
1 20261U 89080A   22126.15675759  .00000221  00000+0  65760-4 0  9996
2 20261  82.5987 295.1431 1201125 300.8260  47.9980 12.56339215489935
SL-14 R/B               
1 20262U 89080C   22125.89122453  .00000367  00000+0  10326-3 0  9993
2 20262  82.5957 353.5683 1236978 149.5967 218.3193 12.49051502484800
DELTA 2 R/B(1)          
1 20303U 89085B   22126.02699682  .00021767  00000+0  57284-3 0  9994
2 20303  35.6400 357.5078 0081193 191.5332 168.3536 15.34304319773393
DELTA 1 R/B             
1 20323U 89089B   22125.87330251  .00000329  00000+0  94203-4 0  9990
2 20323  97.0843 174.4070 0070447 227.6485 131.8733 14.48500078692372
ARIANE 40 R/B           
1 20443U 90005H   22126.46752009  .00000272  00000+0  10370-3 0  9997
2 20443  98.4854 194.7407 0011649  92.0177 268.2344 14.38213355691260
DELTA 2 R/B(1)          
1 20453U 90008B   22126.06681439  .00013109  00000+0  68392-3 0  9995
2 20453  35.6234 154.7214 0268715 294.6496  62.6455 14.89116273713586
COSMOS 2058             
1 20465U 90010A   22126.28427029  .00001946  00000+0  15900-3 0  9991
2 20465  82.4878 331.2339 0016313  45.7803 314.4757 14.98768502752422
SL-14 R/B               
1 20466U 90010B   22126.47947781  .00000337  00000+0  39915-4 0  9991
2 20466  82.5009 142.8518 0019169 234.5985 125.3439 14.81522931741651
SL-14 R/B               
1 20511U 90018B   22125.87239645  .00000498  00000+0  62340-4 0  9992
2 20511  82.5215  92.8699 0018152  28.1013  32.7892 14.80175210714797
HST                     
1 20580U 90037B   22126.27873727  .00003533  00000+0  19888-3 0  9990
2 20580  28.4702  88.2215 0002419 302.4028 167.5035 15.10394279560099
SL-16 R/B               
1 20625U 90046B   22125.86740593 -.00000196  00000+0 -77029-4 0  9994
2 20625  71.0007   5.3162 0016561 276.4150  83.5086 14.14687527649838
COSMOS 2084             
1 20663U 90055A   22126.10700785  .00002867  00000+0  26152-3 0  9998
2 20663  62.7954  31.3127 0113279  45.5361 315.4928 14.92742534725980
SL-6 R/B(2)             
1 20666U 90055D   22125.84087606  .00002824  00000+0  24748-3 0  9993
2 20666  62.7848 306.8395 0127844  68.3428 293.1225 14.93055667727363
SL-8 R/B                
1 20775U 90078B   22126.12403322  .00008565  00000+0  40762-3 0  9990
2 20775  82.9282  18.0940 0553267 218.9620 137.0474 14.39166768604425
SL-8 R/B                
1 21088U 91006B   22126.12827986  .00000010  00000+0 -53237-5 0  9997
2 21088  82.9393 133.9417 0022827   9.5553  60.5763 13.77197586571139
OKEAN-3                 
1 21397U 91039A   22126.42595451  .00001911  00000+0  17825-3 0  9999
2 21397  82.5228 242.5307 0018142  30.8119 329.4162 14.93592008675985
COSMOS 2151             
1 21422U 91042A   22126.35983365  .00001152  00000+0  10933-3 0  9999
2 21422  82.5008 347.8738 0015652  93.8415 266.4595 14.92595494674551
SL-14 R/B               
1 21423U 91042B   22125.85460493  .00000436  00000+0  54571-4 0  9997
2 21423  82.4921  94.4077 0017954 162.2823 197.9020 14.79921553645325
ERS-1                   
1 21574U 91050A   22125.90183725  .00000237  00000+0  92975-4 0  9998
2 21574  98.6946  94.2194 0033830  45.9088 314.4874 14.37890866613905
ARIANE 40 R/B           
1 21610U 91050F   22126.26123306  .00000318  00000+0  11231-3 0  9993
2 21610  98.3826 196.5874 0003188  16.9296  14.7278 14.41044896617038
INTERCOSMOS 25          
1 21819U 91086A   22126.13401545  .00001063  00000+0  21614-3 0  9997
2 21819  82.5781  74.0583 1513790 246.1233  97.4264 12.05661590327142
SL-8 R/B                
1 21876U 92008B   22125.85666897  .00000069  00000+0  55209-4 0  9999
2 21876  82.9291 231.4706 0036195  94.9802  26.1905 13.75697512516388
SL-8 R/B                
1 21938U 92020B   22125.90552470 -.00000030  00000+0 -46596-4 0  9998
2 21938  82.9266 116.1908 0027810 254.9722 168.3811 13.75303327508165
COSMOS 2219             
1 22219U 92076A   22126.28253116 -.00000099  00000+0 -27472-4 0  9996
2 22219  71.0617  70.8056 0018406 192.6176 167.4488 14.13694427520340
SL-16 R/B               
1 22220U 92076B   22125.84610097 -.00000068  00000+0 -10069-4 0  9994
2 22220  71.0004 264.5525 0010686  71.6057  38.7827 14.16495957523015
COSMOS 2221             
1 22236U 92080A   22126.18109667  .00001141  00000+0  12027-3 0  9996
2 22236  82.5082 173.6758 0016250 192.8361 167.2445 14.88404418592594
SL-16 R/B               
1 22285U 92093B   22126.53379688  .00000021  00000+0  35546-4 0  9993
2 22285  71.0216  68.9482 0006392 279.8765  80.1636 14.15080236514957
COSMOS 2228             
1 22286U 92094A   22125.76123940  .00001360  00000+0  14277-3 0  9991
2 22286  82.5172 131.1343 0019779 321.3712  38.6089 14.88648065566679
SL-16 R/B               
1 22566U 93016B   22125.89402760  .00000319  00000+0  18904-3 0  9995
2 22566  71.0075 282.7245 0012200 294.5239  65.4611 14.15001642503579
COSMOS 2242             
1 22626U 93024A   22126.14475196  .00001213  00000+0  12773-3 0  9995
2 22626  82.5209 159.1910 0017563 320.6899  39.3042 14.88482954571435
SL-16 R/B               
1 22803U 93059B   22126.19524019 -.00000037  00000+0  53194-5 0  9992
2 22803  70.9896  89.8706 0017782 196.1778 163.8780 14.16861242480974
ARIANE 40 R/B           
1 22830U 93061H   22125.88437314  .00000221  00000+0  99658-4 0  9999
2 22830  98.6662 188.7693 0012132 104.2699 255.9832 14.31542509493178
COSMOS 2278             
1 23087U 94023A   22126.23229070  .00000026  00000+0  38491-4 0  9992
2 23087  71.0557 230.0245 0008914 356.4810   3.6248 14.13869414446651
SL-16 R/B               
1 23088U 94023B   22126.46015703 -.00000146  00000+0 -50942-4 0  9994
2 23088  70.9978 137.0177 0005898 270.5538  89.4908 14.14708249447888
SL-16 R/B               
1 23343U 94074B   22125.42938527  .00000551  00000+0  85263-4 0  9999
2 23343  97.8968 179.2819 0008279  95.0792 275.7140 14.77007288479818
SL-16 R/B               
1 23405U 94077B   22125.85422205  .00000166  00000+0  10999-3 0  9994
2 23405  70.9842  65.0725 0001965 194.1851 165.9217 14.15258172417864
ERS-2                   
1 23560U 95021A   22126.15730970  .00010085  00000+0  39338-3 0  9990
2 23560  98.5080  25.7236 0002999  14.3876 345.7444 15.26176376446897
ARIANE 40+ R/B          
1 23561U 95021B   22125.91987492  .00000324  00000+0  12168-3 0  9994
2 23561  98.6263 183.0526 0007196  22.9822 150.0018 14.38129410417376
SL-16 R/B               
1 23705U 95058B   22126.56485044  .00000116  00000+0  84205-4 0  9993
2 23705  71.0232 245.1749 0010368 100.0936 260.1357 14.15175006369623
SL-16 R/B               
1 24298U 96051B   22126.10425598  .00000039  00000+0  47256-4 0  9992
2 24298  70.8188 260.1766 0012759  48.3948 311.8263 14.12407131323711
ORBVIEW 2 (SEASTAR)     
1 24883U 97037A   22126.35498075  .00000303  00000+0  12528-3 0  9991
2 24883  98.6739 249.6004 0001634 208.0660 152.0436 14.33720781307535
SL-16 R/B               
1 25400U 98043G   22125.82132187  .00000077  00000+0  51096-4 0  9997
2 25400  98.6706  62.4139 0010749 128.9741 231.2398 14.25509691239179
SL-16 R/B               
1 25407U 98045B   22126.05365330 -.00000169  00000+0 -61750-4 0  9992
2 25407  71.0114 252.4711 0007622 348.0461  12.0480 14.15857208228670
ISS (ZARYA)             
1 25544U 98067A   22126.68320285  .00008674  00000+0  15993-3 0  9991
2 25544  51.6432 182.1362 0006753  70.9453  74.0407 15.49966531338741
CZ-4B R/B               
1 25732U 99025C   22125.90962509  .00000065  00000+0  53422-4 0  9996
2 25732  98.8584 167.3782 0038134  50.2961 122.6926 14.17725007189223
OKEAN-O                 
1 25860U 99039A   22126.38336387  .00000602  00000+0  93127-4 0  9998
2 25860  98.1430 165.8758 0001447 114.5108 245.6252 14.76910280227133
SL-16 R/B               
1 25861U 99039B   22126.05220210  .00000585  00000+0  86844-4 0  9998
2 25861  98.1824 152.3432 0016897 107.9543 252.3511 14.78792498229366
DELTA 2 R/B             
1 25876U 99041E   22126.35056076  .00000423  00000+0  11144-3 0  9998
2 25876  51.7635 113.9883 0529732 190.8246 168.0906 14.04999811165321
HELIOS 1B               
1 25977U 99064A   22125.48529405  .00000592  00000+0  80479-4 0  9994
2 25977  98.3237 317.9602 0000461  24.0566 336.0668 14.82744285476910
TERRA                   
1 25994U 99068A   22126.52932247  .00000432  00000+0  10580-3 0  9993
2 25994  98.1382 199.4065 0001400  97.7721  19.0349 14.57149503190515
SL-16 R/B               
1 26070U 00006B   22126.48233913 -.00000110  00000+0 -31920-4 0  9999
2 26070  71.0015 167.4195 0015805 165.5809 194.5768 14.15488736149952
